{
    "links": {
        "self": "http://www.neowsapp.com/rest/v1/neo/3684734?api_key=iIulBulltgU6a56xZRHN4H3l9WmuAYTsLGpBGhQ2"
    },
    "id": "3684734",
    "neo_reference_id": "3684734",
    "name": "(2014 QK365)",
    "designation": "2014 QK365",
    "nasa_jpl_url": "http://ssd.jpl.nasa.gov/sbdb.cgi?sstr=3684734",
    "absolute_magnitude_h": 23.2,
    "estimated_diameter": {
        "kilometers": {
            "estimated_diameter_min": 0.0608912622,
            "estimated_diameter_max": 0.1361570015
        },
        "meters": {
            "estimated_diameter_min": 60.8912622106,
            "estimated_diameter_max": 136.1570015386
        },
        "miles": {
            "estimated_diameter_min": 0.0378360645,
            "estimated_diameter_max": 0.0846040122
        },
        "feet": {
            "estimated_diameter_min": 199.7744887109,
            "estimated_diameter_max": 446.7093369279
        }
    },
    "is_potentially_hazardous_asteroid": false,
    "close_approach_data": [
        {
            "close_approach_date": "2014-09-01",
            "close_approach_date_full": "2014-Sep-01 03:11",
            "epoch_date_close_approach": 1409541060000,
            "relative_velocity": {
                "kilometers_per_second": "13.2349378259",
                "kilometers_per_hour": "47645.7761731248",
                "miles_per_hour": "29605.2324226841"
            },
            "miss_distance": {
                "astronomical": "0.1464332339",
                "lunar": "56.9625279871",
                "kilometers": "21906099.888651793",
                "miles": "13611819.2823610234"
            },
            "orbiting_body": "Earth"
        }
    ],
    "orbital_data": {
        "orbit_id": "5",
        "orbit_determination_date": "2017-04-06 08:38:59",
        "first_observation_date": "2014-08-30",
        "last_observation_date": "2014-09-04",
        "data_arc_in_days": 5,
        "observations_used": 33,
        "orbit_uncertainty": "9",
        "minimum_orbit_intersection": ".146068",
        "jupiter_tisserand_invariant": "4.468",
        "epoch_osculation": "2456901.5",
        "eccentricity": ".2533205689511328",
        "semi_major_axis": "1.473602495282665",
        "inclination": "24.46508325287095",
        "ascending_node_longitude": "333.5919135794035",
        "orbital_period": "653.3846829390868",
        "perihelion_distance": "1.100308672769851",
        "perihelion_argument": "43.25648188334844",
        "aphelion_distance": "1.846896317795478",
        "perihelion_time": "2456941.762209383923",
        "mean_anomaly": "337.8164444978831",
        "mean_motion": ".5509771033820848",
        "equinox": "J2000",
        "orbit_class": {
            "orbit_class_type": "AMO",
            "orbit_class_description": "Near-Earth asteroid orbits similar to that of 1221 Amor",
            "orbit_class_range": "1.017 AU < q (perihelion) < 1.3 AU"
        }
    },
    "is_sentry_object": false
}